OBJECT_NAME,OBJECT_ID,EPOCH,MEAN_MOTION,ECCENTRICITY,INCLINATION,RA_OF_ASC_NODE,ARG_OF_PERICENTER,MEAN_ANOMALY,EPHEMERIS_TYPE,CLASSIFICATION_TYPE,NORAD_CAT_ID,ELEMENT_SET_NO,REV_AT_EPOCH,BSTAR,MEAN_MOTION_DOT,MEAN_MOTION_DDOT
PRAETORIAN SDA_606,2025-203E,2026-01-01T22:26:54.607200,13.84682079,.0006303,81.3052,164.7947,285.9079,74.1383,0,U,65569,999,1569,.89579E-4,.113E-5,0
PRAETORIAN SDA_607,2025-203F,2026-01-01T23:07:48.952128,13.85224161,.0008915,81.3036,164.6590,283.5227,76.4936,0,U,65570,999,1570,.10395E-3,.13E-5,0
PRAETORIAN SDA_608,2025-203G,2026-01-01T22:45:09.166464,13.84543580,.000581,81.3001,164.7510,291.5627,68.4910,0,U,65571,999,1569,.10682E-3,.132E-5,0
PRAETORIAN SDA_609,2025-203H,2026-01-01T22:17:36.120192,13.84778933,.0006657,81.3044,164.7799,284.1948,75.8469,0,U,65572,999,1569,.10736E-3,.133E-5,0
PRAETORIAN SDA_610,2025-203J,2026-01-01T22:31:38.550432,13.84639832,.0006154,81.3001,164.7395,287.0678,72.9804,0,U,65573,999,1569,.9462E-4,.118E-5,0
PRAETORIAN SDA_611,2025-203K,2026-01-01T22:53:06.474624,13.84492589,.0005701,81.3007,164.7655,295.2360,64.8205,0,U,65574,999,1569,.10656E-3,.131E-5,0
PRAETORIAN SDA_612,2025-203L,2026-01-01T23:17:00.164256,13.85157165,.0008721,81.3036,164.6667,283.7141,76.3045,0,U,65575,999,1570,.10355E-3,.129E-5,0
PRAETORIAN SDA_613,2025-203M,2026-01-01T22:21:51.312960,13.84736979,.0006486,81.3001,164.7329,285.3106,74.7334,0,U,65576,999,1569,.9494E-4,.119E-5,0
PRAETORIAN SDA_614,2025-203N,2026-01-01T22:13:35.124672,13.84813494,.000663,81.3016,164.7422,282.3306,77.7108,0,U,65577,999,1570,.99853E-4,.124E-5,0
PRAETORIAN SDA_615,2025-203P,2026-01-01T21:17:46.243392,13.85274542,.0009167,81.3014,164.6947,285.1622,74.8521,0,U,65578,999,1569,.10808E-3,.135E-5,0
PRAETORIAN SDA_616,2025-203Q,2026-01-01T22:49:43.805280,13.84493828,.0005751,81.3051,164.8145,293.8669,66.1884,0,U,65579,999,1569,.10258E-3,.127E-5,0
PRAETORIAN SDA_617,2025-203R,2026-01-01T23:27:53.329248,13.85038631,.0008231,81.3030,164.6757,281.8862,78.1371,0,U,65580,999,1570,.95259E-4,.12E-5,0
PRAETORIAN SDA_618,2025-203S,2026-01-01T22:56:49.123104,13.85332391,.0009371,81.3019,164.6249,284.1094,75.9021,0,U,65581,999,1570,.11178E-3,.139E-5,0
PRAETORIAN SDA_619,2025-203T,2026-01-01T21:48:26.870112,13.85018694,.0007969,81.3040,164.7479,282.1069,77.9195,0,U,65582,999,1632,.10888E-3,.135E-5,0
PRAETORIAN SDA_620,2025-203U,2026-01-01T21:52:48.419328,13.84983879,.0007787,81.3031,164.7354,282.2893,77.7392,0,U,65583,999,1569,.10634E-3,.132E-5,0
PRAETORIAN SDA_621,2025-203V,2026-01-02T02:50:00.956832,13.85097718,.0008231,81.3018,164.5131,281.2439,78.7793,0,U,65584,999,1572,.93986E-4,.118E-5,0
PRAETORIAN SDA_601,2025-203W,2026-01-01T22:59:50.226144,13.84392676,.0005596,81.3036,164.8053,296.2235,63.8346,0,U,65585,999,1569,.90041E-4,.113E-5,0
PROGRESS-MS 32,2025-204A,2026-01-01T18:58:54.170400,15.49013666,.00075024,51.6329,43.1850,328.5908,31.4631,0,U,65586,999,27,.2633784E-3,.14103E-3,0
NUSANTARA LIMA (NUSANTARA 5),2025-205A,2026-01-01T09:54:58.582656,0.99942132,.0993626,0.0995,342.3223,39.8148,337.3698,0,U,65588,999,103,0,-.34E-5,0
COSMOS 2596 [GLONASS-K1],2025-206B,2026-01-02T02:34:04.456992,2.13099978,.0013958,64.7325,320.7669,308.3303,234.2500,0,U,65590,999,237,0,-.67E-6,0
STARLINK-35267,2025-207A,2026-01-02T03:30:35.091072,15.06472115,.000088,97.6036,72.9901,63.3569,296.7748,0,U,65592,999,1823,.5161E-3,.756E-4,0
STARLINK-35269,2025-207B,2026-01-02T04:09:03.525408,15.05654937,.000288,97.6033,73.1116,89.6560,270.4996,0,U,65593,999,1824,.61105E-3,.8769E-4,0
STARLINK-35191,2025-207C,2026-01-02T02:57:18.359424,15.05642459,.0002827,97.6044,73.0236,67.3213,292.8313,0,U,65594,999,1807,.60809E-3,.8723E-4,0
STARLINK-35261,2025-207D,2026-01-02T03:53:06.248832,15.06460713,.0001629,97.6033,73.1272,91.0117,269.1297,0,U,65595,999,1825,-.252E-3,-.3776E-4,0
STARLINK-35253,2025-207E,2026-01-02T03:09:14.704416,15.05659250,.0001579,97.6053,73.0123,86.9038,273.2369,0,U,65596,999,1803,.55287E-3,.7928E-4,0
STARLINK-35263,2025-207F,2026-01-02T04:21:01.549152,15.05662929,.0001956,97.6039,73.1006,80.7323,279.4125,0,U,65597,999,1825,.91734E-3,.13205E-3,0
STARLINK-35248,2025-207G,2026-01-02T02:26:14.252640,15.06476283,.0001818,97.6025,73.0527,55.7050,304.4349,0,U,65598,999,1824,.1093E-2,.161E-3,0
STARLINK-35245,2025-207H,2026-01-01T17:58:59.128608,15.05645640,.00006351,97.6031,72.7536,104.6923,255.4374,0,U,65599,999,1819,.13026002E-2,.18782E-3,0
STARLINK-35229,2025-207J,2026-01-01T17:46:34.082400,15.06483235,.00011169,97.6046,72.6092,84.0213,276.1142,0,U,65600,999,1818,.77875367E-3,.11448E-3,0
STARLINK-35234,2025-207K,2026-01-02T03:05:15.713376,15.05661467,.0001873,97.6050,73.0179,49.5391,310.5999,0,U,65601,999,1824,.895E-3,.12881E-3,0
