PRAETORIAN SDA_606      
1 65569U 25203E   26001.93535425  .00000113  00000+0  89579-4 0  9994
2 65569  81.3052 164.7947 0006303 285.9079  74.1383 13.84682079 15697
PRAETORIAN SDA_607      
1 65570U 25203F   26001.96376102  .00000130  00000+0  10395-3 0  9992
2 65570  81.3036 164.6590 0008915 283.5227  76.4936 13.85224161 15700
PRAETORIAN SDA_608      
1 65571U 25203G   26001.94802276  .00000132  00000+0  10682-3 0  9998
2 65571  81.3001 164.7510 0005810 291.5627  68.4910 13.84543580 15699
PRAETORIAN SDA_609      
1 65572U 25203H   26001.92889028  .00000133  00000+0  10736-3 0  9998
2 65572  81.3044 164.7799 0006657 284.1948  75.8469 13.84778933 15693
PRAETORIAN SDA_610      
1 65573U 25203J   26001.93864063  .00000118  00000+0  94620-4 0  9990
2 65573  81.3001 164.7395 0006154 287.0678  72.9804 13.84639832 15698
PRAETORIAN SDA_611      
1 65574U 25203K   26001.95354716  .00000131  00000+0  10656-3 0  9993
2 65574  81.3007 164.7655 0005701 295.2360  64.8205 13.84492589 15691
PRAETORIAN SDA_612      
1 65575U 25203L   26001.97014079  .00000129  00000+0  10355-3 0  9994
2 65575  81.3036 164.6667 0008721 283.7141  76.3045 13.85157165 15701
PRAETORIAN SDA_613      
1 65576U 25203M   26001.93184390  .00000119  00000+0  94940-4 0  9997
2 65576  81.3001 164.7329 0006486 285.3106  74.7334 13.84736979 15691
PRAETORIAN SDA_614      
1 65577U 25203N   26001.92610098  .00000124  00000+0  99853-4 0  9990
2 65577  81.3016 164.7422 0006630 282.3306  77.7108 13.84813494 15704
PRAETORIAN SDA_615      
1 65578U 25203P   26001.88734078  .00000135  00000+0  10808-3 0  9995
2 65578  81.3014 164.6947 0009167 285.1622  74.8521 13.85274542 15695
PRAETORIAN SDA_616      
1 65579U 25203Q   26001.95120145  .00000127  00000+0  10258-3 0  9998
2 65579  81.3051 164.8145 0005751 293.8669  66.1884 13.84493828 15696
PRAETORIAN SDA_617      
1 65580U 25203R   26001.97770057  .00000120  00000+0  95259-4 0  9993
2 65580  81.3030 164.6757 0008231 281.8862  78.1371 13.85038631 15704
PRAETORIAN SDA_618      
1 65581U 25203S   26001.95612411  .00000139  00000+0  11178-3 0  9998
2 65581  81.3019 164.6249 0009371 284.1094  75.9021 13.85332391 15704
PRAETORIAN SDA_619      
1 65582U 25203T   26001.90864433  .00000135  00000+0  10888-3 0  9990
2 65582  81.3040 164.7479 0007969 282.1069  77.9195 13.85018694 16326
PRAETORIAN SDA_620      
1 65583U 25203U   26001.91167152  .00000132  00000+0  10634-3 0  9992
2 65583  81.3031 164.7354 0007787 282.2893  77.7392 13.84983879 15694
PRAETORIAN SDA_621      
1 65584U 25203V   26002.11806663  .00000118  00000+0  93986-4 0  9999
2 65584  81.3018 164.5131 0008231 281.2439  78.7793 13.85097718 15720
PRAETORIAN SDA_601      
1 65585U 25203W   26001.95822021  .00000113  00000+0  90041-4 0  9991
2 65585  81.3036 164.8053 0005596 296.2235  63.8346 13.84392676 15693
PROGRESS-MS 32          
1 65586U 25204A   26001.79090475  .00014103  00000+0  26338-3 0  9996
2 65586  51.6329  43.1850 0007502 328.5908  31.4631 15.49013666   276
NUSANTARA LIMA (NUSANT*)
1 65588U 25205A   26001.41317804 -.00000340  00000+0  00000+0 0  9999
2 65588   0.0995 342.3223 0993626  39.8148 337.3698  0.99942132  1036
COSMOS 2596 [GLONASS-K1]
1 65590U 25206B   26002.10699603 -.00000067  00000+0  00000+0 0  9996
2 65590  64.7325 320.7669 0013958 308.3303 234.2500  2.13099978  2379
STARLINK-35267          
1 65592U 25207A   26002.14623948  .00007560  00000+0  51610-3 0  9993
2 65592  97.6036  72.9901 0000880  63.3569 296.7748 15.06472115 18235
STARLINK-35269          
1 65593U 25207B   26002.17295747  .00008769  00000+0  61105-3 0  9991
2 65593  97.6033  73.1116 0002880  89.6560 270.4996 15.05654937 18246
STARLINK-35191          
1 65594U 25207C   26002.12312916  .00008723  00000+0  60809-3 0  9995
2 65594  97.6044  73.0236 0002827  67.3213 292.8313 15.05642459 18078
STARLINK-35261          
1 65595U 25207D   26002.16187788 -.00003776  00000+0 -25200-3 0  9998
2 65595  97.6033  73.1272 0001629  91.0117 269.1297 15.06460713 18254
STARLINK-35253          
1 65596U 25207E   26002.13142019  .00007928  00000+0  55287-3 0  9993
2 65596  97.6053  73.0123 0001579  86.9038 273.2369 15.05659250 18037
STARLINK-35263          
1 65597U 25207F   26002.18126793  .00013205  00000+0  91734-3 0  9992
2 65597  97.6039  73.1006 0001956  80.7323 279.4125 15.05662929 18250
STARLINK-35248          
1 65598U 25207G   26002.10155385  .00016100  00000+0  10930-2 0  9999
2 65598  97.6025  73.0527 0001818  55.7050 304.4349 15.06476283 18242
STARLINK-35245          
1 65599U 25207H   26001.74929547  .00018782  00000+0  13026-2 0  9995
2 65599  97.6031  72.7536 0000635 104.6923 255.4374 15.05645640 18196
STARLINK-35229          
1 65600U 25207J   26001.74067225  .00011448  00000+0  77875-3 0  9999
2 65600  97.6046  72.6092 0001116  84.0213 276.1142 15.06483235 18182
STARLINK-35234          
1 65601U 25207K   26002.12865409  .00012881  00000+0  89500-3 0  9993
2 65601  97.6050  73.0179 0001873  49.5391 310.5999 15.05661467 18246
